CALSPHERE 1             
1 00900U 64063C   09078.20048598  .00000236  00000-0  25521-3 0  7388
2 00900  90.1652 325.5614 0028029 137.3520 222.9846 13.70429234207144
CALSPHERE 2             
1 00902U 64063E   09077.75184618  .00000075  00000-0  10000-3 0   103
2 00902  90.1693 328.5911 0018428 144.8055 215.4307 13.52462158  5149
LCS 1                   
1 01361U 65034C   09077.86393314  .00000009  00000-0  10000-3 0  1084
2 01361  32.1462  13.4827 0004813   2.5310 357.5210  9.89275767586410
TEMPSAT 1               
1 01512U 65065E   09078.85064025  .00000058  00000-0  10000-3 0   948
2 01512  89.8126 302.0511 0068450 292.2037  67.1848 13.33257573120720
CALSPHERE 4(A)          
1 01520U 65065H   09078.97075210  .00000059  00000-0  10000-3 0  2288
2 01520  90.1821  81.5987 0068566 217.8315 141.7994 13.35308624122349
OPS 5712 (P/L 160)      
1 02826U 67053A   09079.16794374  .00000407  00000-0  15364-3 0  6748
2 02826  69.9355  12.8013 0009930 266.6459  93.3502 14.38181010154493
OPS 5712 (P/L 153)      
1 02874U 67053H   09078.14138982  .00000001  00000-0  39422-4 0   639
2 02874  69.9721 284.6806 0005161  96.2048 263.9652 13.95919485127976
SURCAL 150B             
1 02909U 67053J   09078.17130502  .00000464  00000-0  14592-3 0  8508
2 02909  69.9559 192.3294 0002109 133.2113 226.9207 14.46378848159951
RIGIDSPHERE 2 (LCS 4)   
1 05398U 71067E   09078.48828418  .00000224  00000-0  75894-4 0  5130
2 05398  87.6157 274.0859 0067931 108.7083 252.1505 14.31133796971734
RADCAT                  
1 06212U 72076A   09078.94696808  .00001948  00000-0  73733-4 0  6960
2 06212  98.5958  73.3579 0002356 321.9598  38.1438 15.28494698109243
